{
    "links": {
        "self": "http://www.neowsapp.com/rest/v1/neo/3725151?api_key=iIulBulltgU6a56xZRHN4H3l9WmuAYTsLGpBGhQ2"
    },
    "id": "3725151",
    "neo_reference_id": "3725151",
    "name": "(2015 OS78)",
    "designation": "2015 OS78",
    "nasa_jpl_url": "http://ssd.jpl.nasa.gov/sbdb.cgi?sstr=3725151",
    "absolute_magnitude_h": 20.9,
    "estimated_diameter": {
        "kilometers": {
            "estimated_diameter_min": 0.1756123185,
            "estimated_diameter_max": 0.3926810818
        },
        "meters": {
            "estimated_diameter_min": 175.6123184804,
            "estimated_diameter_max": 392.6810818086
        },
        "miles": {
            "estimated_diameter_min": 0.1091204019,
            "estimated_diameter_max": 0.2440006365
        },
        "feet": {
            "estimated_diameter_min": 576.1559189633,
            "estimated_diameter_max": 1288.3238004408
        }
    },
    "is_potentially_hazardous_asteroid": false,
    "close_approach_data": [
        {
            "close_approach_date": "2015-08-26",
            "close_approach_date_full": "2015-Aug-26 09:30",
            "epoch_date_close_approach": 1440581400000,
            "relative_velocity": {
                "kilometers_per_second": "22.1965817245",
                "kilometers_per_hour": "79907.6942080261",
                "miles_per_hour": "49651.533659426"
            },
            "miss_distance": {
                "astronomical": "0.0839541332",
                "lunar": "32.6581578148",
                "kilometers": "12559359.504416284",
                "miles": "7804024.1186373592"
            },
            "orbiting_body": "Earth"
        },
        {
            "close_approach_date": "2015-09-25",
            "close_approach_date_full": "2015-Sep-25 11:57",
            "epoch_date_close_approach": 1443182220000,
            "relative_velocity": {
                "kilometers_per_second": "16.4828714646",
                "kilometers_per_hour": "59338.3372727267",
                "miles_per_hour": "36870.5351792673"
            },
            "miss_distance": {
                "astronomical": "0.1361599194",
                "lunar": "52.9662086466",
                "kilometers": "20369233.921611678",
                "miles": "12656855.0527220364"
            },
            "orbiting_body": "Venus"
        }
    ],
    "orbital_data": {
        "orbit_id": "8",
        "orbit_determination_date": "2017-04-06 08:32:39",
        "first_observation_date": "2015-07-26",
        "last_observation_date": "2015-08-25",
        "data_arc_in_days": 30,
        "observations_used": 32,
        "orbit_uncertainty": "7",
        "minimum_orbit_intersection": ".0756413",
        "jupiter_tisserand_invariant": "3.155",
        "epoch_osculation": "2459000.5",
        "eccentricity": ".7550368816806716",
        "semi_major_axis": "2.264918995647927",
        "inclination": "7.464275426055592",
        "ascending_node_longitude": "10.47099625803853",
        "orbital_period": "1245.023182512672",
        "perihelion_distance": ".5548216199145974",
        "perihelion_argument": "52.57236449372599",
        "aphelion_distance": "3.975016371381256",
        "perihelion_time": "2458552.178930876587",
        "mean_anomaly": "129.6325941166047",
        "mean_motion": ".2891512423675982",
        "equinox": "J2000",
        "orbit_class": {
            "orbit_class_type": "APO",
            "orbit_class_description": "Near-Earth asteroid orbits which cross the Earth’s orbit similar to that of 1862 Apollo",
            "orbit_class_range": "a (semi-major axis) > 1.0 AU; q (perihelion) < 1.017 AU"
        }
    },
    "is_sentry_object": false
}